[{"OBJECT_NAME":"STARLINK-1361","OBJECT_ID":"2020-025AN","EPOCH":"2026-03-09T22:44:55.848768","MEAN_MOTION":15.47742463,"ECCENTRICITY":0.00077177,"INCLINATION":53.0509,"RA_OF_ASC_NODE":72.6747,"ARG_OF_PERICENTER":32.9629,"MEAN_ANOMALY":327.1858,"EPHEMERIS_TYPE":0,"CLASSIFICATION_TYPE":"U","NORAD_CAT_ID":45567,"ELEMENT_SET_NO":999,"REV_AT_EPOCH":32559,"BSTAR":0.0019136745,"MEAN_MOTION_DOT":0.00101742,"MEAN_MOTION_DDOT":0},{"OBJECT_NAME":"COSMOS 1703","OBJECT_ID":"1985-108A","EPOCH":"2026-03-09T17:57:42.122880","MEAN_MOTION":15.50625975,"ECCENTRICITY":0.00059475,"INCLINATION":82.4603,"RA_OF_ASC_NODE":321.559,"ARG_OF_PERICENTER":16.4744,"MEAN_ANOMALY":343.6699,"EPHEMERIS_TYPE":0,"CLASSIFICATION_TYPE":"U","NORAD_CAT_ID":16262,"ELEMENT_SET_NO":999,"REV_AT_EPOCH":20203,"BSTAR":0.00045588511,"MEAN_MOTION_DOT":0.00026209,"MEAN_MOTION_DDOT":0}]
